[{"OBJECT_NAME":"KUIPER-00178","OBJECT_ID":"2026-030D","EPOCH":"2026-03-09T15:15:28.534752","MEAN_MOTION":15.35571325,"ECCENTRICITY":0.0006451,"INCLINATION":51.8828,"RA_OF_ASC_NODE":219.4634,"ARG_OF_PERICENTER":46.2779,"MEAN_ANOMALY":313.8741,"EPHEMERIS_TYPE":0,"CLASSIFICATION_TYPE":"U","NORAD_CAT_ID":67767,"ELEMENT_SET_NO":999,"REV_AT_EPOCH":508,"BSTAR":0.00070511,"MEAN_MOTION_DOT":0.00024464,"MEAN_MOTION_DDOT":0},{"OBJECT_NAME":"SL-3 R\/B","OBJECT_ID":"1983-075B","EPOCH":"2026-03-09T22:44:04.814016","MEAN_MOTION":15.38425255,"ECCENTRICITY":0.00201513,"INCLINATION":97.6147,"RA_OF_ASC_NODE":73.5342,"ARG_OF_PERICENTER":224.8963,"MEAN_ANOMALY":135.0652,"EPHEMERIS_TYPE":0,"CLASSIFICATION_TYPE":"U","NORAD_CAT_ID":14208,"ELEMENT_SET_NO":999,"REV_AT_EPOCH":33019,"BSTAR":0.0003432682,"MEAN_MOTION_DOT":0.00013017,"MEAN_MOTION_DDOT":0}]
